ORBCOMM FM115           
1 41186U 15081H   23334.01299983  .00001548  00000+0  35381-3 0  9991
2 41186  46.9981 202.2805 0000864 321.9927  38.0898 14.60142962425113
ORBCOMM FM108           
1 41187U 15081J   23334.90772186  .00002316  00000+0  55768-3 0  9996
2 41187  47.0040 247.2793 0002684 252.2389 107.8203 14.56094892424585
ORBCOMM FM117           
1 41188U 15081K   23333.15808389  .00002296  00000+0  55340-3 0  9991
2 41188  47.0004 254.4637 0003361 257.1453 102.9057 14.56085394424290
ORBCOMM FM116           
1 41189U 15081L   23334.93163000  .00002129  00000+0  51567-3 0  9995
2 41189  47.0025 335.9230 0002734 327.5454  32.5262 14.56105825423437
